[{"OBJECT_NAME":"QIANFAN-86","OBJECT_ID":"2025-046P","EPOCH":"2026-03-03T10:24:18.846144","MEAN_MOTION":13.51000777,"ECCENTRICITY":0.0009284,"INCLINATION":88.9766,"RA_OF_ASC_NODE":311.4516,"ARG_OF_PERICENTER":259.9582,"MEAN_ANOMALY":100.0521,"EPHEMERIS_TYPE":0,"CLASSIFICATION_TYPE":"U","NORAD_CAT_ID":63172,"ELEMENT_SET_NO":999,"REV_AT_EPOCH":5844,"BSTAR":0.00029513,"MEAN_MOTION_DOT":2.03e-6,"MEAN_MOTION_DDOT":0},{"OBJECT_NAME":"QIANFAN-87","OBJECT_ID":"2025-046Q","EPOCH":"2026-03-03T11:29:37.525056","MEAN_MOTION":13.51009035,"ECCENTRICITY":0.0009948,"INCLINATION":88.9762,"RA_OF_ASC_NODE":311.5554,"ARG_OF_PERICENTER":253.8406,"MEAN_ANOMALY":106.165,"EPHEMERIS_TYPE":0,"CLASSIFICATION_TYPE":"U","NORAD_CAT_ID":63173,"ELEMENT_SET_NO":999,"REV_AT_EPOCH":5838,"BSTAR":0.00026746,"MEAN_MOTION_DOT":1.85e-6,"MEAN_MOTION_DDOT":0},{"OBJECT_NAME":"QIANFAN-88","OBJECT_ID":"2025-046R","EPOCH":"2026-03-03T11:53:06.328032","MEAN_MOTION":13.50997414,"ECCENTRICITY":0.0010362,"INCLINATION":88.9765,"RA_OF_ASC_NODE":311.5104,"ARG_OF_PERICENTER":263.4804,"MEAN_ANOMALY":96.5167,"EPHEMERIS_TYPE":0,"CLASSIFICATION_TYPE":"U","NORAD_CAT_ID":63174,"ELEMENT_SET_NO":999,"REV_AT_EPOCH":5841,"BSTAR":0.00026806,"MEAN_MOTION_DOT":1.85e-6,"MEAN_MOTION_DDOT":0},{"OBJECT_NAME":"QIANFAN-89","OBJECT_ID":"2025-046S","EPOCH":"2026-03-03T11:00:01.786464","MEAN_MOTION":13.51007959,"ECCENTRICITY":0.001482,"INCLINATION":88.9765,"RA_OF_ASC_NODE":311.7032,"ARG_OF_PERICENTER":252.4352,"MEAN_ANOMALY":107.518,"EPHEMERIS_TYPE":0,"CLASSIFICATION_TYPE":"U","NORAD_CAT_ID":63175,"ELEMENT_SET_NO":999,"REV_AT_EPOCH":5830,"BSTAR":0.00027362,"MEAN_MOTION_DOT":1.89e-6,"MEAN_MOTION_DDOT":0},{"OBJECT_NAME":"QIANFAN-90","OBJECT_ID":"2025-046T","EPOCH":"2026-03-03T11:41:33.158976","MEAN_MOTION":13.51007752,"ECCENTRICITY":0.0011767,"INCLINATION":88.9765,"RA_OF_ASC_NODE":311.6727,"ARG_OF_PERICENTER":250.4973,"MEAN_ANOMALY":109.4907,"EPHEMERIS_TYPE":0,"CLASSIFICATION_TYPE":"U","NORAD_CAT_ID":63176,"ELEMENT_SET_NO":999,"REV_AT_EPOCH":5832,"BSTAR":0.00029152,"MEAN_MOTION_DOT":2.0e-6,"MEAN_MOTION_DDOT":0},{"OBJECT_NAME":"QIANFAN-91","OBJECT_ID":"2025-233A","EPOCH":"2026-03-03T10:41:45.072384","MEAN_MOTION":13.51004403,"ECCENTRICITY":0.0001906,"INCLINATION":88.9926,"RA_OF_ASC_NODE":53.8823,"ARG_OF_PERICENTER":92.8647,"MEAN_ANOMALY":267.2722,"EPHEMERIS_TYPE":0,"CLASSIFICATION_TYPE":"U","NORAD_CAT_ID":66033,"ELEMENT_SET_NO":999,"REV_AT_EPOCH":1890,"BSTAR":5.7637e-5,"MEAN_MOTION_DOT":4.9e-7,"MEAN_MOTION_DDOT":0},{"OBJECT_NAME":"QIANFAN-92","OBJECT_ID":"2025-233B","EPOCH":"2026-03-03T10:53:30.874848","MEAN_MOTION":13.51005728,"ECCENTRICITY":0.0001946,"INCLINATION":88.991,"RA_OF_ASC_NODE":53.8705,"ARG_OF_PERICENTER":86.454,"MEAN_ANOMALY":273.6833,"EPHEMERIS_TYPE":0,"CLASSIFICATION_TYPE":"U","NORAD_CAT_ID":66034,"ELEMENT_SET_NO":999,"REV_AT_EPOCH":1890,"BSTAR":8.8742e-5,"MEAN_MOTION_DOT":6.9e-7,"MEAN_MOTION_DDOT":0},{"OBJECT_NAME":"QIANFAN-93","OBJECT_ID":"2025-233C","EPOCH":"2026-03-03T11:05:22.053984","MEAN_MOTION":13.51004827,"ECCENTRICITY":0.0001897,"INCLINATION":88.9937,"RA_OF_ASC_NODE":53.8928,"ARG_OF_PERICENTER":90.8373,"MEAN_ANOMALY":269.2996,"EPHEMERIS_TYPE":0,"CLASSIFICATION_TYPE":"U","NORAD_CAT_ID":66035,"ELEMENT_SET_NO":999,"REV_AT_EPOCH":1890,"BSTAR":5.5396e-5,"MEAN_MOTION_DOT":4.8e-7,"MEAN_MOTION_DDOT":0},{"OBJECT_NAME":"QIANFAN-94","OBJECT_ID":"2025-233D","EPOCH":"2026-03-03T10:47:20.059008","MEAN_MOTION":13.50991777,"ECCENTRICITY":0.0002038,"INCLINATION":88.9933,"RA_OF_ASC_NODE":53.801,"ARG_OF_PERICENTER":88.5632,"MEAN_ANOMALY":271.5753,"EPHEMERIS_TYPE":0,"CLASSIFICATION_TYPE":"U","NORAD_CAT_ID":66036,"ELEMENT_SET_NO":999,"REV_AT_EPOCH":1895,"BSTAR":3.4453e-5,"MEAN_MOTION_DOT":3.4e-7,"MEAN_MOTION_DDOT":0},{"OBJECT_NAME":"QIANFAN-95","OBJECT_ID":"2025-233E","EPOCH":"2026-03-03T10:59:16.531008","MEAN_MOTION":13.51015305,"ECCENTRICITY":0.0002035,"INCLINATION":88.9932,"RA_OF_ASC_NODE":53.3463,"ARG_OF_PERICENTER":93.8948,"MEAN_ANOMALY":266.2436,"EPHEMERIS_TYPE":0,"CLASSIFICATION_TYPE":"U","NORAD_CAT_ID":66037,"ELEMENT_SET_NO":999,"REV_AT_EPOCH":1920,"BSTAR":8.6755e-5,"MEAN_MOTION_DOT":6.8e-7,"MEAN_MOTION_DDOT":0},{"OBJECT_NAME":"QIANFAN-96","OBJECT_ID":"2025-233F","EPOCH":"2026-03-03T11:35:03.443136","MEAN_MOTION":13.51004547,"ECCENTRICITY":0.0001912,"INCLINATION":88.9928,"RA_OF_ASC_NODE":53.8899,"ARG_OF_PERICENTER":94.717,"MEAN_ANOMALY":265.4199,"EPHEMERIS_TYPE":0,"CLASSIFICATION_TYPE":"U","NORAD_CAT_ID":66038,"ELEMENT_SET_NO":999,"REV_AT_EPOCH":1890,"BSTAR":3.2546e-5,"MEAN_MOTION_DOT":3.3e-7,"MEAN_MOTION_DDOT":0},{"OBJECT_NAME":"QIANFAN-97","OBJECT_ID":"2025-233G","EPOCH":"2026-03-03T11:11:20.144832","MEAN_MOTION":13.5100398,"ECCENTRICITY":0.000192,"INCLINATION":88.9932,"RA_OF_ASC_NODE":53.8722,"ARG_OF_PERICENTER":92.155,"MEAN_ANOMALY":267.9821,"EPHEMERIS_TYPE":0,"CLASSIFICATION_TYPE":"U","NORAD_CAT_ID":66039,"ELEMENT_SET_NO":999,"REV_AT_EPOCH":1891,"BSTAR":1.9263e-5,"MEAN_MOTION_DOT":2.4e-7,"MEAN_MOTION_DDOT":0},{"OBJECT_NAME":"QIANFAN-98","OBJECT_ID":"2025-233H","EPOCH":"2026-03-03T11:23:06.686880","MEAN_MOTION":13.51004405,"ECCENTRICITY":0.0002439,"INCLINATION":88.9921,"RA_OF_ASC_NODE":53.6138,"ARG_OF_PERICENTER":86.3889,"MEAN_ANOMALY":273.7541,"EPHEMERIS_TYPE":0,"CLASSIFICATION_TYPE":"U","NORAD_CAT_ID":66040,"ELEMENT_SET_NO":999,"REV_AT_EPOCH":1905,"BSTAR":2.3914e-5,"MEAN_MOTION_DOT":2.7e-7,"MEAN_MOTION_DDOT":0},{"OBJECT_NAME":"QIANFAN-99","OBJECT_ID":"2025-233J","EPOCH":"2026-03-03T11:29:06.311328","MEAN_MOTION":13.51004733,"ECCENTRICITY":0.0002311,"INCLINATION":88.9931,"RA_OF_ASC_NODE":53.8743,"ARG_OF_PERICENTER":90.2776,"MEAN_ANOMALY":269.864,"EPHEMERIS_TYPE":0,"CLASSIFICATION_TYPE":"U","NORAD_CAT_ID":66041,"ELEMENT_SET_NO":999,"REV_AT_EPOCH":1891,"BSTAR":4.4693e-5,"MEAN_MOTION_DOT":4.1e-7,"MEAN_MOTION_DDOT":0},{"OBJECT_NAME":"QIANFAN-100","OBJECT_ID":"2025-233K","EPOCH":"2026-03-03T11:17:12.964416","MEAN_MOTION":13.51005555,"ECCENTRICITY":0.0001899,"INCLINATION":88.9943,"RA_OF_ASC_NODE":53.7902,"ARG_OF_PERICENTER":91.4078,"MEAN_ANOMALY":268.729,"EPHEMERIS_TYPE":0,"CLASSIFICATION_TYPE":"U","NORAD_CAT_ID":66042,"ELEMENT_SET_NO":999,"REV_AT_EPOCH":1896,"BSTAR":8.8194e-5,"MEAN_MOTION_DOT":6.9e-7,"MEAN_MOTION_DDOT":0},{"OBJECT_NAME":"QIANFAN-101","OBJECT_ID":"2025-233L","EPOCH":"2026-03-03T11:07:39.700416","MEAN_MOTION":14.26731387,"ECCENTRICITY":0.0016706,"INCLINATION":88.9933,"RA_OF_ASC_NODE":52.7029,"ARG_OF_PERICENTER":125.2291,"MEAN_ANOMALY":235.047,"EPHEMERIS_TYPE":0,"CLASSIFICATION_TYPE":"U","NORAD_CAT_ID":66043,"ELEMENT_SET_NO":999,"REV_AT_EPOCH":1955,"BSTAR":0.00026039,"MEAN_MOTION_DOT":6.45e-6,"MEAN_MOTION_DDOT":0},{"OBJECT_NAME":"QIANFAN-102","OBJECT_ID":"2025-233M","EPOCH":"2026-03-03T11:46:37.436448","MEAN_MOTION":13.50992321,"ECCENTRICITY":0.000207,"INCLINATION":88.993,"RA_OF_ASC_NODE":53.7851,"ARG_OF_PERICENTER":88.9122,"MEAN_ANOMALY":271.2266,"EPHEMERIS_TYPE":0,"CLASSIFICATION_TYPE":"U","NORAD_CAT_ID":66044,"ELEMENT_SET_NO":999,"REV_AT_EPOCH":1896,"BSTAR":2.6729e-5,"MEAN_MOTION_DOT":2.9e-7,"MEAN_MOTION_DDOT":0}]
