QIANFAN-86              
1 63172U 25046P   26062.43355146  .00000203  00000+0  29513-3 0  9990
2 63172  88.9766 311.4516 0009284 259.9582 100.0521 13.51000777 58440
QIANFAN-87              
1 63173U 25046Q   26062.47890654  .00000185  00000+0  26746-3 0  9997
2 63173  88.9762 311.5554 0009948 253.8406 106.1650 13.51009035 58384
QIANFAN-88              
1 63174U 25046R   26062.49521213  .00000185  00000+0  26806-3 0  9999
2 63174  88.9765 311.5104 0010362 263.4804  96.5167 13.50997414 58415
QIANFAN-89              
1 63175U 25046S   26062.45835401  .00000189  00000+0  27362-3 0  9995
2 63175  88.9765 311.7032 0014820 252.4352 107.5180 13.51007959 58300
QIANFAN-90              
1 63176U 25046T   26062.48718934  .00000200  00000+0  29152-3 0  9993
2 63176  88.9765 311.6727 0011767 250.4973 109.4907 13.51007752 58326
QIANFAN-91              
1 66033U 25233A   26062.44566056  .00000049  00000+0  57637-4 0  9999
2 66033  88.9926  53.8823 0001906  92.8647 267.2722 13.51004403 18900
QIANFAN-92              
1 66034U 25233B   26062.45382957  .00000069  00000+0  88742-4 0  9990
2 66034  88.9910  53.8705 0001946  86.4540 273.6833 13.51005728 18903
QIANFAN-93              
1 66035U 25233C   26062.46206081  .00000048  00000+0  55396-4 0  9991
2 66035  88.9937  53.8928 0001897  90.8373 269.2996 13.51004827 18908
QIANFAN-94              
1 66036U 25233D   26062.44953772  .00000034  00000+0  34453-4 0  9992
2 66036  88.9933  53.8010 0002038  88.5632 271.5753 13.50991777 18957
QIANFAN-95              
1 66037U 25233E   26062.45783022  .00000068  00000+0  86755-4 0  9992
2 66037  88.9932  53.3463 0002035  93.8948 266.2436 13.51015305 19203
QIANFAN-96              
1 66038U 25233F   26062.48267874  .00000033  00000+0  32546-4 0  9999
2 66038  88.9928  53.8899 0001912  94.7170 265.4199 13.51004547 18906
QIANFAN-97              
1 66039U 25233G   26062.46620538  .00000024  00000+0  19263-4 0  9999
2 66039  88.9932  53.8722 0001920  92.1550 267.9821 13.51003980 18910
QIANFAN-98              
1 66040U 25233H   26062.47438295  .00000027  00000+0  23914-4 0  9990
2 66040  88.9921  53.6138 0002439  86.3889 273.7541 13.51004405 19058
QIANFAN-99              
1 66041U 25233J   26062.47854527  .00000041  00000+0  44693-4 0  9994
2 66041  88.9931  53.8743 0002311  90.2776 269.8640 13.51004733 18916
QIANFAN-100             
1 66042U 25233K   26062.47028894  .00000069  00000+0  88194-4 0  9999
2 66042  88.9943  53.7902 0001899  91.4078 268.7290 13.51005555 18961
QIANFAN-101             
1 66043U 25233L   26062.46365394  .00000645  00000+0  26039-3 0  9997
2 66043  88.9933  52.7029 0016706 125.2291 235.0470 14.26731387 19551
QIANFAN-102             
1 66044U 25233M   26062.49071107  .00000029  00000+0  26729-4 0  9990
2 66044  88.9930  53.7851 0002070  88.9122 271.2266 13.50992321 18962
